1 44285U 19029BC  20001.58334491  .00331523  00000-0  18209-1 0  9992
2 44285  53.0002 251.6752 0001492 100.3294   3.2257 15.12051083 34752
1 44285U 19029BC  20001.91667824 -.00028050  00000-0 -15978-2 0  9999
2 44285  53.0003 250.1650 0001614  91.6465  27.4615 15.12140967 34804
1 44285U 19029BC  20002.41668981  .00123876  00000-0  70050-2 0  9992
2 44285  53.0008 247.8966 0001564  94.7558 227.7757 15.12110419 34882
1 44285U 19029BC  20002.83334491 -.00034911  00000-0 -19941-2 0  9999
2 44285  53.0009 246.0077 0001629  94.2517 337.6748 15.12151534 34940
1 44285U 19029BC  20002.91668981 -.00023238 +00000-0 -13198-2 0  9990
2 44285 053.0008 245.6301 0001633 091.5953 074.2935 15.12141915001794
1 44285U 19029BC  20003.91667824 -.00018596  00000-0 -10521-2 0  9994
2 44285  53.0010 241.0956 0001632  92.3271 120.2273 15.12141651 35100
1 44285U 19029BC  20004.41667824  .00091652  00000-0  52096-2 0  9995
2 44285  53.0012 238.8270 0001565  98.9728 316.9590 15.12117362 35185
1 44285U 19029BC  20004.91667824 -.00014925  00000-0 -84059-3 0  9995
2 44285  53.0010 236.5610 0001623  93.6053 165.6872 15.12141391 35253
1 44285U 19029BC  20005.58334491  .00231471  00000-0  12887-1 0  9993
2 44285  53.0008 233.5363 0001605 103.1770 187.2852 15.12086285 35365
1 44285U 19029BC  20005.75001157 -.00032539  00000-0 -18565-2 0  9998
2 44285  53.0008 232.7814 0001631 100.6821  17.5565 15.12157905 35381
1 44285U 19029BC  20006.58334491  .00269191  00000-0  14918-1 0  9991
2 44285  53.0002 229.0020 0001509 106.2254 230.9526 15.12054421 35511
1 44285U 19029BC  20006.91668981 -.00008689  00000-0 -48225-3 0  9997
2 44285  52.9999 227.4922 0001507  96.9034 255.8745 15.12109156 35566
1 44285U 19029BC  20007.58334491  .00363418  00000-0  19877-1 0  9998
2 44285  52.9994 224.4677 0001499 106.9474 276.8628 15.12037126 35666
1 44285U 19029BC  20007.91667824 -.00004448  00000-0 -23837-3 0  9994
2 44285  52.9992 222.9579 0001531  97.1199 302.2324 15.12108850 35716
1 44285U 19029BC  20008.58334491  .00260921  00000-0  14469-1 0  9996
2 44285  52.9988 219.9331 0001443 106.6188 323.8232 15.12074418 35819
1 44285U 19029BC  20008.91667824  .00007985  00000-0  47460-3 0  9990
2 44285  52.9987 218.4232 0001414  96.9300 349.0946 15.12132957 35867
1 44285U 19029BC  20009.33335648  .00195496  00000-0  10937-1 0  9995
2 44285  52.9986 216.5321 0001268  99.6032  95.9704 15.12102530 35923
1 44285U 19029BC  20009.58334491  .00253279  00000-0  14052-1 0  9993
2 44285  52.9985 215.3980 0001364 104.7617  12.4339 15.12097102 35964
1 44285U 19029BC  20009.91667824 +.00013823 +00000-0 +80843-3 0  9991
2 44285 052.9985 213.8882 0001403 094.8992 037.8833 15.12133599001792
1 44285U 19029BC  20010.25001157  .00023276  00000-0  13473-2 0  9998
2 44285  52.9985 212.3753 0001327  98.3136  50.0489 15.12147946 36060
1 44285U 19029BC  20010.91667824 +.00028352 +00000-0 +16383-2 0  9993
2 44285 052.9987 209.3531 0001277 092.7301 086.7925 15.12102965036162
1 44285U 19029BC  20011.91668981  .00031061  00000-0  17926-2 0  9994
2 44285  52.9992 204.8181 0001273  91.0198 135.2281 15.12101539 36319
1 44285U 19029BC  20012.25001157  .00421323  00000-0  22846-1 0  9998
2 44285  52.9993 203.3051 0001147  88.1395 153.6048 15.12047436 36361
1 44285U 19029BC  20012.58334491  .00116068  00000-0  65728-2 0  9998
2 44285  52.9995 201.7934 0001268 101.2512 156.0418 15.12104497 36412
1 44285U 19029BC  20012.91668981  .00035225  00000-0  20294-2 0  9993
2 44285  52.9997 200.2832 0001257  90.9347 181.9894 15.12103201 36476
1 44285U 19029BC  20013.58334491  .00050751  00000-0  29085-2 0  9991
2 44285  53.0001 197.2586 0001242 102.9838 200.9889 15.12122420 36579
1 44285U 19029BC  20013.91667824  .00035351  00000-0  20365-2 0  9998
2 44285  53.0001 195.7486 0001208  92.2676 227.2761 15.12103857 36624
1 44285U 19029BC  20014.91556507 -.00000432 +00000-0 -77399-5 0  9990
2 44285 053.0002 191.2174 0001171 096.6753 263.4371 15.12107350034767
1 44285U 19029BC  20014.91667824  .00036756  00000-0  21163-2 0  9996
2 44285  53.0002 191.2140 0001137  94.2949 271.9384 15.12104832 36776
1 44285U 19029BC  20015.57651259 -.00002324 +00000-0 -11633-3 0  9992
2 44285 053.0002 188.2202 0001068 096.6355 263.4757 15.12123316034867
1 44285U 19029BC  20015.58334491  .00029981  00000-0  17297-2 0  9996
2 44285  53.0001 188.1898 0001138 106.1574 291.1900 15.12131042 36870
1 44285U 19029BC  20015.91667824  .00038637  00000-0  22232-2 0  9995
2 44285  52.9998 186.6796 0001073  96.4488 316.4736 15.12103937 36922
1 44285U 19029BC  20016.25001157 +.00183128 +00000-0 +10270-1 0  9998
2 44285 052.9997 185.1664 0001038 105.9788 322.5081 15.12081452001794
1 44285U 19029BC  20016.50001157  .00058757  00000-0  33613-2 0  9992
2 44285  52.9996 184.0328 0001138 110.5233 239.6242 15.12117905 37010
1 44285U 19029BC  20016.58335648 -.00033851 +00000-0 -19333-2 0  9998
2 44285 052.9995 183.6554 0001121 108.2681 335.8304 15.12143160001806
1 44285U 19029BC  20016.75001157 -.00010364  00000-0 -57839-3 0  9990
2 44285  52.9992 182.9005 0001102 100.2369 171.5872 15.12123887 37055
1 44285U 19029BC  20017.25001157  .00267612  00000-0  14829-1 0  9994
2 44285  52.9989 180.6318 0000966 103.6749  11.5012 15.12065572 37122
1 44285U 19029BC  20017.58334491  .00238478  00000-0  13252-1 0  9997
2 44285  52.9987 179.1208 0001138 102.0771  28.6686 15.12117071 37174
1 44285U 19029BC  20017.91667824  .00036427  00000-0  20957-2 0  9994
2 44285  52.9984 177.6102 0001141  95.7486  50.6036 15.12137275 37220
1 44285U 19029BC  20018.58334491 +.00254597 +00000-0 +14120-1 0  9993
2 44285 052.9981 174.5859 0001200 097.3571 080.1903 15.12103038001795
1 44285U 19029BC  20018.91667824  .00030466  00000-0  17582-2 0  9992
2 44285  52.9980 173.0751 0001243  93.8130  99.3008 15.12113257 37373
1 44285U 19029BC  20019.25001157 +.00118165 +00000-0 +66920-2 0  9994
2 44285 052.9979 171.5617 0001229 101.9323 106.7477 15.12089946001791
1 44285U 19029BC  20019.58334491  .00141345  00000-0  79721-2 0  9999
2 44285  52.9979 170.0510 0001295  96.4570 127.7779 15.12105025 37471
1 44285U 19029BC  20019.91667824  .00021415  00000-0  12423-2 0  9996
2 44285  52.9978 168.5401 0001222  92.0495 147.7515 15.12118139 37525
1 44285U 19029BC  20020.58334491 +.00061017 +00000-0 +34883-2 0  9998
2 44285 052.9980 165.5160 0001278 095.6021 175.3312 15.12122950001790
1 44285U 19029BC  20020.91667824  .00010862  00000-0  63928-3 0  9999
2 44285  52.9981 164.0049 0001188  90.1502 196.3527 15.12127386 37681
1 44285U 19029BC  20021.25001157 +.00339502 +00000-0 +18627-1 0  9997
2 44285 052.9984 162.4915 0001223 094.0986 207.9935 15.12048256001790
1 44285U 19029BC  20021.58334491 +.00010061 +00000-0 +59330-3 0  9997
2 44285 052.9985 160.9810 0001239 094.2441 223.4020 15.12137833001791
1 44285U 19029BC  20021.91667824  .00000251  00000-0  31497-4 0  9998
2 44285  52.9986 159.4698 0001151  88.4622 244.7578 15.12136785 37831
1 44285U 19029BC  20022.58334491 +.00051512 +00000-0 +29506-2 0  9995
2 44285 052.9991 156.4462 0001195 091.8438 272.5324 15.12133440001805
1 44285U 19029BC  20023.25001157  .00319144  00000-0  17554-1 0  9997
2 44285  52.9994 153.4217 0001127  96.6842 298.8706 15.12063692 38031
1 44285U 19029BC  20023.50001157 -.00015077  00000-0 -84939-3 0  9998
2 44285  52.9997 152.2890 0001194  96.6855 220.5378 15.12139972 38072
1 44285U 19029BC  20023.58334491 -.00029457 +00000-0 -16795-2 0  9997
2 44285 052.9996 151.9116 0001217 092.8451 318.2724 15.12133613001799
1 44285U 19029BC  20024.25001157  .00528899  00000-0  28600-1 0  9991
2 44285  52.9997 148.8872 0001173  94.2598 347.9700 15.12001008 38181
1 44285U 19029BC  20024.58334491 -.00025278  00000-0 -14384-2 0  9997
2 44285  52.9998 147.3773 0001183  93.3532   4.4083 15.12123517 38230
1 44285U 19029BC  20025.58335648 -.00020161  00000-0 -11430-2 0  9998
2 44285  52.9996 142.8431 0001106  94.1022  50.3790 15.12122226 38384
1 44285U 19029BC  20026.25001157  .00362814  00000-0  19843-1 0  9995
2 44285  52.9993 139.8187 0001046  97.7521  77.7832 15.12041088 38488
1 44285U 19029BC  20026.41667824 -.00013329  00000-0 -74895-3 0  9998
2 44285  52.9995 139.0637 0001060 102.4030 260.8919 15.12131424 38516
1 44285U 19029BC  20026.91667824 +.00009340 +00000-0 +55222-3 0  9992
2 44285 052.9989 136.7969 0000989 092.1378 114.4910 15.12125524001799
1 44285U 19029BC  20027.25001157  .00413191  00000-0  22435-1 0  9992
2 44285  52.9987 135.2842 0001093  95.2442 126.9544 15.12041232 38631
1 44285U 19029BC  20027.58334491 -.00008806  00000-0 -48847-3 0  9990
2 44285  52.9986 133.7744 0001138  91.8858 145.8951 15.12148013 38689
1 44285U 19029BC  20027.91667824 +.00008425 +00000-0 +49939-3 0  9994
2 44285 052.9984 132.2621 0001083 090.8125 162.5586 15.12159855001798
1 44285U 19029BC  20028.25001157  .00358807  00000-0  19616-1 0  9992
2 44285  52.9983 130.7493 0001195  95.0817 173.8990 15.12076665 38786
1 44285U 19029BC  20028.58334491 -.00003994  00000-0 -21214-3 0  9993
2 44285  52.9982 129.2395 0001212  88.7829 195.7810 15.12131626 38841
1 44285U 19029BC  20028.91667824 +.00017793 +00000-0 +10352-2 0  9999
2 44285 052.9981 127.7271 0001178 087.9901 212.1251 15.12131587001781
1 44285U 19029BC  20029.25001157  .00646180  00000-0  34858-1 0  9992
2 44285  52.9981 126.2144 0001385  90.0881 225.6124 15.11998718 38948
1 44285U 19029BC  20029.58334491  .00005258  00000-0  31854-3 0  9998
2 44285  52.9981 124.7046 0001240  85.2772 245.9781 15.12123568 38990
1 44285U 19029BC  20029.91667824 +.00050160 +00000-0 +28747-2 0  9992
2 44285 052.9981 123.1920 0001181 084.4465 262.3551 15.12126802001765
1 44285U 19029BC  20030.50002315 -.00014728 +00000-0 -82937-3 0  9991
2 44285 052.9980 120.5470 0001214 083.6738 200.4410 15.12136781001782
1 44285U 19029BC  20030.50002315 -.00014728  00000-0 -82937-3 0  9991
2 44285  52.9980 120.5470 0001214  83.6738 200.4410 15.12136781 39132
1 44285U 19029BC  20031.41667824 -.00023186  00000-0 -13165-2 0  9998
2 44285  52.9984 116.3896 0001179  83.7844 153.0969 15.12151102 39260
